STARLINK-38033          
1 69739U 26150A   26193.58335648 -.00078137  00000+0 -40996-3 0  9999
2 69739  97.2840  31.7958 0001256  88.7904  86.7392 15.80862688  2884
STARLINK-38076          
1 69740U 26150B   26193.58335648 -.00190263  00000+0 -12981-2 0  9998
2 69740  97.2833  31.7736 0001183  71.3862  51.2209 15.75282759  2885
STARLINK-38074          
1 69741U 26150C   26193.58335648 -.00071655  00000+0 -37570-3 0  9994
2 69741  97.2840  31.8023 0001216  78.0496 112.1570 15.80858034  2887
STARLINK-38041          
1 69742U 26150D   26193.58335648 -.00085876  00000+0 -45089-3 0  9999
2 69742  97.2842  31.8044 0000911  97.6623  96.4870 15.80870913  2880
STARLINK-38087          
1 69743U 26150E   26193.58335648 -.00072415  00000+0 -37965-3 0  9999
2 69743  97.2843  31.8058 0001141  84.4472 114.3513 15.80862660  2883
STARLINK-38078          
1 69744U 26150F   26193.58335648 -.00006074  00000+0 -30975-4 0  9993
2 69744  97.2845  31.8062 0001118  83.6493 119.4270 15.80827301  2888
STARLINK-38047          
1 69745U 26150G   26193.58335648 -.00104206  00000+0 -54806-3 0  9998
2 69745  97.2840  31.8095 0001254  80.0771 127.5395 15.80884970  2884
STARLINK-38046          
1 69746U 26150H   26193.58335648 -.00103490  00000+0 -54441-3 0  9998
2 69746  97.2848  31.8148 0001142  79.0712 139.4751 15.80878788  2889
STARLINK-38067          
1 69747U 26150J   26193.58335648 -.00195015  00000+0 -13311-2 0  9993
2 69747  97.2840  31.8021 0001127  83.1303 105.4740 15.75286589  2884
STARLINK-37988          
1 69748U 26150K   26193.58335648 -.00029268  00000+0 -19591-3 0  9997
2 69748  97.2846  31.8045 0001214  84.2279 114.3821 15.75203566  2881
STARLINK-37987          
1 69749U 26150L   26193.58335648 -.00716544  00000+0 -51131-2 0  9993
2 69749  97.2842  31.8158 0001668  74.1756 148.2180 15.75657004  2888
STARLINK-38037          
1 69750U 26150M   26193.58335648 -.00102108  00000+0 -53707-3 0  9992
2 69750  97.2843  31.8256 0001097  91.0535 153.4913 15.80877797  2880
STARLINK-38049          
1 69751U 26150N   26193.58335648 -.00080735  00000+0 -42351-3 0  9997
2 69751  97.2843  31.8284 0001106  96.3324 153.9975 15.80875152  2883
STARLINK-38029          
1 69752U 26150P   26193.58335648 -.00070122  00000+0 -36748-3 0  9990
2 69752  97.2841  31.8424 0001134  87.8741 195.1596 15.80864325  2884
STARLINK-37965          
1 69753U 26150Q   26193.58335648 -.01887588  00000+0 -13450-1 0  9997
2 69753  97.2843  31.8392 0001500  81.5258 195.8485 15.76908115  2887
STARLINK-38048          
1 69754U 26150R   26193.58335648 -.00083980  00000+0 -44076-3 0  9991
2 69754  97.2838  31.8433 0001125  67.6105 217.5331 15.80873618  2883
STARLINK-38006          
1 69755U 26150S   26193.58335648 -.00116877  00000+0 -61562-3 0  9993
2 69755  97.2838  31.8492 0000870  67.0127 233.7349 15.80888140  2888
STARLINK-38036          
1 69756U 26150T   26193.58335648 -.00113095  00000+0 -59550-3 0  9997
2 69756  97.2840  31.8542 0001260  75.1680 233.2618 15.80884322  2888
STARLINK-38058          
1 69757U 26150U   26193.58335648 -.00110482  00000+0 -58157-3 0  9997
2 69757  97.2839  31.8547 0001132  75.4035 234.4663 15.80883929  2882
STARLINK-38066          
1 69758U 26150V   26193.58335648 -.00089440  00000+0 -46977-3 0  9994
2 69758  97.2840  31.8550 0001404  72.4532 238.2720 15.80872250  2881
STARLINK-38035          
1 69759U 26150W   26193.58335648 -.00093518  00000+0 -49134-3 0  9994
2 69759  97.2840  31.8549 0001277  61.2689 250.1549 15.80877554  2881
STARLINK-38056          
1 69760U 26150X   26193.58335648 -.00103914  00000+0 -54658-3 0  9995
2 69760  97.2837  31.8638 0001323  77.0013 254.0903 15.80881768  2885
STARLINK-38069          
1 69761U 26150Y   26193.58335648 -.00091893  00000+0 -48266-3 0  9996
2 69761  97.2835  31.8726 0001471  85.2483 265.5084 15.80878876  2881
STARLINK-38019          
1 69762U 26150Z   26193.58335648 -.00068758  00000+0 -46395-3 0  9992
2 69762  97.2838  31.8648 0000852  47.6529 286.9061 15.75185156  2881
KUIPER-00258            
1 69763U 26151A   26193.58335648 -.00010457  00000+0 -28776-3 0  9990
2 69763  51.8671 193.1505 0011429 159.8906 117.0027 15.35436952  1978
KUIPER-00526            
1 69764U 26151B   26193.58335648 -.00010524  00000+0 -27320-3 0  9990
2 69764  51.8758 193.0203 0005993 130.1267 211.2277 15.37292589  1736
KUIPER-00558            
1 69765U 26151C   26193.58335648 -.00011186  00000+0 -29582-3 0  9998
2 69765  51.8752 193.0565 0007520 141.7761 181.9959 15.36785082  2215
KUIPER-00569            
1 69766U 26151D   26193.58335648 -.00010395  00000+0 -26846-3 0  9990
2 69766  51.8781 193.0043 0005053 127.7187 220.5044 15.37443558  1308
KUIPER-00589            
1 69767U 26151E   26193.58335648 -.00009970  00000+0 -25748-3 0  9998
2 69767  51.8749 193.0137 0005302 133.3462 211.5463 15.37387647  2248
KUIPER-00598            
1 69768U 26151F   26193.58335648 -.00013141  00000+0 -36617-3 0  9991
2 69768  51.8636 193.1387 0010060 156.4201 125.3515 15.35321986  2158
