OBJECT_NAME,OBJECT_ID,EPOCH,MEAN_MOTION,ECCENTRICITY,INCLINATION,RA_OF_ASC_NODE,ARG_OF_PERICENTER,MEAN_ANOMALY,EPHEMERIS_TYPE,CLASSIFICATION_TYPE,NORAD_CAT_ID,ELEMENT_SET_NO,REV_AT_EPOCH,BSTAR,MEAN_MOTION_DOT,MEAN_MOTION_DDOT
STARLINK-38033,2026-150A,2026-07-12T14:00:01.999872,15.80862688,.00012567,97.2840,31.7958,88.7904,86.7392,0,U,69739,999,288,-.40996453E-3,-.78137E-3,0
STARLINK-38076,2026-150B,2026-07-12T14:00:01.999872,15.75282759,.00011834,97.2833,31.7736,71.3862,51.2209,0,U,69740,999,288,-.12980943E-2,-.190263E-2,0
STARLINK-38074,2026-150C,2026-07-12T14:00:01.999872,15.80858034,.00012165,97.2840,31.8023,78.0496,112.1570,0,U,69741,999,288,-.37570072E-3,-.71655E-3,0
STARLINK-38041,2026-150D,2026-07-12T14:00:01.999872,15.80870913,.00009118,97.2842,31.8044,97.6623,96.4870,0,U,69742,999,288,-.450891E-3,-.85876E-3,0
STARLINK-38087,2026-150E,2026-07-12T14:00:01.999872,15.80862660,.00011419,97.2843,31.8058,84.4472,114.3513,0,U,69743,999,288,-.37964637E-3,-.72415E-3,0
STARLINK-38078,2026-150F,2026-07-12T14:00:01.999872,15.80827301,.00011184,97.2845,31.8062,83.6493,119.4270,0,U,69744,999,288,-.30975295E-4,-.6074E-4,0
STARLINK-38047,2026-150G,2026-07-12T14:00:01.999872,15.80884970,.00012548,97.2840,31.8095,80.0771,127.5395,0,U,69745,999,288,-.54806009E-3,-.104206E-2,0
STARLINK-38046,2026-150H,2026-07-12T14:00:01.999872,15.80878788,.00011423,97.2848,31.8148,79.0712,139.4751,0,U,69746,999,288,-.54440951E-3,-.10349E-2,0
STARLINK-38067,2026-150J,2026-07-12T14:00:01.999872,15.75286589,.00011278,97.2840,31.8021,83.1303,105.4740,0,U,69747,999,288,-.13310597E-2,-.195015E-2,0
STARLINK-37988,2026-150K,2026-07-12T14:00:01.999872,15.75203566,.00012145,97.2846,31.8045,84.2279,114.3821,0,U,69748,999,288,-.1959136E-3,-.29268E-3,0
STARLINK-37987,2026-150L,2026-07-12T14:00:01.999872,15.75657004,.00016685,97.2842,31.8158,74.1756,148.2180,0,U,69749,999,288,-.51131128E-2,-.716544E-2,0
STARLINK-38037,2026-150M,2026-07-12T14:00:01.999872,15.80877797,.00010977,97.2843,31.8256,91.0535,153.4913,0,U,69750,999,288,-.53706985E-3,-.102108E-2,0
STARLINK-38049,2026-150N,2026-07-12T14:00:01.999872,15.80875152,.00011069,97.2843,31.8284,96.3324,153.9975,0,U,69751,999,288,-.42351235E-3,-.80735E-3,0
STARLINK-38029,2026-150P,2026-07-12T14:00:01.999872,15.80864325,.00011341,97.2841,31.8424,87.8741,195.1596,0,U,69752,999,288,-.36747644E-3,-.70122E-3,0
STARLINK-37965,2026-150Q,2026-07-12T14:00:01.999872,15.76908115,.00015005,97.2843,31.8392,81.5258,195.8485,0,U,69753,999,288,-.134497E-1,-.1887588E-1,0
STARLINK-38048,2026-150R,2026-07-12T14:00:01.999872,15.80873618,.00011258,97.2838,31.8433,67.6105,217.5331,0,U,69754,999,288,-.44075776E-3,-.8398E-3,0
STARLINK-38006,2026-150S,2026-07-12T14:00:01.999872,15.80888140,.00008705,97.2838,31.8492,67.0127,233.7349,0,U,69755,999,288,-.61562443E-3,-.116877E-2,0
STARLINK-38036,2026-150T,2026-07-12T14:00:01.999872,15.80884322,.00012605,97.2840,31.8542,75.1680,233.2618,0,U,69756,999,288,-.59549636E-3,-.113095E-2,0
STARLINK-38058,2026-150U,2026-07-12T14:00:01.999872,15.80883929,.00011324,97.2839,31.8547,75.4035,234.4663,0,U,69757,999,288,-.58156779E-3,-.110482E-2,0
STARLINK-38066,2026-150V,2026-07-12T14:00:01.999872,15.80872250,.00014044,97.2840,31.8550,72.4532,238.2720,0,U,69758,999,288,-.46976586E-3,-.8944E-3,0
STARLINK-38035,2026-150W,2026-07-12T14:00:01.999872,15.80877554,.0001277,97.2840,31.8549,61.2689,250.1549,0,U,69759,999,288,-.49133974E-3,-.93518E-3,0
STARLINK-38056,2026-150X,2026-07-12T14:00:01.999872,15.80881768,.00013232,97.2837,31.8638,77.0013,254.0903,0,U,69760,999,288,-.54658094E-3,-.103914E-2,0
STARLINK-38069,2026-150Y,2026-07-12T14:00:01.999872,15.80878876,.00014719,97.2835,31.8726,85.2483,265.5084,0,U,69761,999,288,-.48265585E-3,-.91893E-3,0
STARLINK-38019,2026-150Z,2026-07-12T14:00:01.999872,15.75185156,.00008528,97.2838,31.8648,47.6529,286.9061,0,U,69762,999,288,-.4639471E-3,-.68758E-3,0
KUIPER-00258,2026-151A,2026-07-12T14:00:01.999872,15.35436952,.00114294,51.8671,193.1505,159.8906,117.0027,0,U,69763,999,197,-.28776242E-3,-.10457E-3,0
KUIPER-00526,2026-151B,2026-07-12T14:00:01.999872,15.37292589,.00059935,51.8758,193.0203,130.1267,211.2277,0,U,69764,999,173,-.27320009E-3,-.10524E-3,0
KUIPER-00558,2026-151C,2026-07-12T14:00:01.999872,15.36785082,.00075205,51.8752,193.0565,141.7761,181.9959,0,U,69765,999,221,-.2958206E-3,-.11186E-3,0
KUIPER-00569,2026-151D,2026-07-12T14:00:01.999872,15.37443558,.00050537,51.8781,193.0043,127.7187,220.5044,0,U,69766,999,130,-.26845981E-3,-.10395E-3,0
KUIPER-00589,2026-151E,2026-07-12T14:00:01.999872,15.37387647,.00053021,51.8749,193.0137,133.3462,211.5463,0,U,69767,999,224,-.25748124E-3,-.997E-4,0
KUIPER-00598,2026-151F,2026-07-12T14:00:01.999872,15.35321986,.00100607,51.8636,193.1387,156.4201,125.3515,0,U,69768,999,215,-.3661682E-3,-.13141E-3,0
